NORAD_CAT_ID,OBJECT_NAME,OBJECT_TYPE,EPOCH,MEAN_MOTION,ECCENTRICITY,INCLINATION,RA_OF_ASC_NODE,ARG_OF_PERICENTER,MEAN_ANOMALY,BSTAR,MEAN_MOTION_DOT,MEAN_MOTION_DDOT,TLE_LINE0,TLE_LINE1,TLE_LINE2,SEMIMAJOR_AXIS,PERIOD,APOGEE,PERIGEE,DECAYED
54779.0,STARLINK-5447,PAYLOAD,2024-05-01 11:42:57,15.08839294,0.0001467,53.2159,189.3028,77.0773,283.0383,-8.0343e-05,-1.566e-05,0.0,0 STARLINK-5447,1 54779U 22175X   24122.48816982 -.00001566  00000-0 -80343-4 0  9998,2 54779  53.2159 189.3028 0001467  77.0773 283.0383 15.08839294 75737,6917.883,95.438,540.762,538.733,0.0
54779.0,STARLINK-5447,PAYLOAD,2024-05-01 21:15:16,15.08842923,0.0001408,53.2157,187.5182,75.7946,284.3202,4.5654e-05,4.39e-06,0.0,0 STARLINK-5447,1 54779U 22175X   24122.88560916  .00000439  00000-0  45654-4 0  9997,2 54779  53.2157 187.5182 0001408  75.7946 284.3202 15.08842923 77951,6917.871,95.437,540.71,538.762,0.0
54779.0,STARLINK-5447,PAYLOAD,2024-05-02 11:33:43,15.08869071,0.0001087,53.2145,184.8398,91.8545,268.2572,0.00039846,6.064e-05,0.0,0 STARLINK-5447,1 54779U 22175X   24123.48175451  .00006064  00000-0  39846-3 0  9995,2 54779  53.2145 184.8398 0001087  91.8545 268.2572 15.08869071 75888,6917.792,95.436,540.408,538.905,0.0
54779.0,STARLINK-5447,PAYLOAD,2024-05-02 13:09:06,15.08869875,0.0001168,53.2153,184.5418,74.7137,285.3984,0.00026108,3.873e-05,0.0,0 STARLINK-5447,1 54779U 22175X   24123.54798833  .00003873  00000-0  26108-3 0  9999,2 54779  53.2153 184.5418 0001168  74.7137 285.3984 15.08869875 78055,6917.789,95.436,540.462,538.846,0.0
54779.0,STARLINK-5447,PAYLOAD,2024-05-03 05:02:59,15.08839369,0.0001314,53.2145,181.5666,84.3463,275.7679,9.1529e-05,1.169e-05,0.0,0 STARLINK-5447,1 54779U 22175X   24124.21040810  .00001169  00000-0  91529-4 0  9995,2 54779  53.2145 181.5666 0001314  84.3463 275.7679 15.08839369 75999,6917.882,95.438,540.656,538.838,0.0
54779.0,STARLINK-5447,PAYLOAD,2024-05-03 11:24:31,15.08843045,0.000161,53.2165,180.3779,85.0642,275.0534,0.00016524,2.343e-05,0.0,0 STARLINK-5447,1 54779U 22175X   24124.47536433  .00002343  00000-0  16524-3 0  9990,2 54779  53.2165 180.3779 0001610  85.0642 275.0534 15.08843045 78193,6917.871,95.437,540.85,538.622,0.0
54779.0,STARLINK-5447,PAYLOAD,2024-05-03 20:56:51,15.0883313,0.0001448,53.2162,178.5943,76.6845,283.4309,2.0466e-05,3.8e-07,0.0,0 STARLINK-5447,1 54779U 22175X   24124.87281464  .00000038  00000-0  20466-4 0  9995,2 54779  53.2162 178.5943 0001448  76.6845 283.4309 15.08833130 78256,6917.901,95.438,540.768,538.765,0.0
54779.0,STARLINK-5447,PAYLOAD,2024-05-04 03:18:24,15.08828633,0.000132,53.2145,177.4063,77.0077,283.1062,6.94e-06,-1.77e-06,0.0,0 STARLINK-5447,1 54779U 22175X   24125.13777879 -.00000177  00000-0  69400-5 0  9992,2 54779  53.2145 177.4063 0001320  77.0077 283.1062 15.08828633 76139,6917.915,95.438,540.693,538.867,0.0
54779.0,STARLINK-5447,PAYLOAD,2024-05-04 09:39:57,15.08821695,0.000126,53.215,176.2136,81.6534,278.4601,-4.9264e-05,-1.071e-05,0.0,0 STARLINK-5447,1 54779U 22175X   24125.40274693 -.00001071  00000-0 -49264-4 0  9998,2 54779  53.2150 176.2136 0001260  81.6534 278.4601 15.08821695 76176,6917.936,95.439,540.673,538.93,0.0
54779.0,STARLINK-5447,PAYLOAD,2024-05-05 03:09:11,15.08828425,0.0001279,53.2168,172.9439,84.9772,275.1366,1.5305e-05,-4.4e-07,0.0,0 STARLINK-5447,1 54779U 22175X   24126.13138586 -.00000044  00000-0  15305-4 0  9996,2 54779  53.2168 172.9439 0001279  84.9772 275.1366 15.08828425 76286,6917.916,95.438,540.666,538.896,0.0
54779.0,STARLINK-5447,PAYLOAD,2024-05-05 09:30:44,15.0883457,0.0001221,53.2163,171.7544,82.1801,277.9329,3.519e-05,2.72e-06,0.0,0 STARLINK-5447,1 54779U 22175X   24126.39634445  .00000272  00000-0  35190-4 0  9995,2 54779  53.2163 171.7544 0001221  82.1801 277.9329 15.08834570 78486,6917.897,95.438,540.607,538.917,0.0
54779.0,STARLINK-5447,PAYLOAD,2024-05-06 02:59:58,15.08834613,0.0001201,53.2164,168.4828,81.5393,278.5735,0.00031899,4.792e-05,0.0,0 STARLINK-5447,1 54779U 22175X   24127.12498416  .00004792  00000-0  31899-3 0  9995,2 54779  53.2164 168.4828 0001201  81.5393 278.5735 15.08834613 76431,6917.897,95.438,540.593,538.931,0.0
54779.0,STARLINK-5447,PAYLOAD,2024-05-06 07:46:08,15.08846047,0.0001254,53.2155,167.5915,78.5358,281.5775,0.00053504,8.239e-05,0.0,0 STARLINK-5447,1 54779U 22175X   24127.32370734  .00008239  00000-0  53504-3 0  9996,2 54779  53.2155 167.5915 0001254  78.5358 281.5775 15.08846047 78628,6917.862,95.437,540.594,538.859,0.0
54779.0,STARLINK-5447,PAYLOAD,2024-05-07 02:50:45,15.08858964,0.0001259,53.2151,164.0228,71.7978,288.3151,0.0003973,6.044e-05,0.0,0 STARLINK-5447,1 54779U 22175X   24128.11857892  .00006044  00000-0  39730-3 0  9996,2 54779  53.2151 164.0228 0001259  71.7978 288.3151 15.08858964 76588,6917.822,95.436,540.558,538.816,0.0
54779.0,STARLINK-5447,PAYLOAD,2024-05-07 09:12:17,15.0886562,0.0001237,53.2147,162.8329,70.3724,289.7402,0.00045406,6.951e-05,0.0,0 STARLINK-5447,1 54779U 22175X   24128.38353419  .00006951  00000-0  45406-3 0  9995,2 54779  53.2147 162.8329 0001237  70.3724 289.7402 15.08865620 78786,6917.802,95.436,540.523,538.811,0.0
54779.0,STARLINK-5447,PAYLOAD,2024-05-08 02:41:31,15.08844859,0.0001385,53.2152,159.5635,74.1488,285.9657,-0.00015261,-2.716e-05,0.0,0 STARLINK-5447,1 54779U 22175X   24129.11217423 -.00002716  00000-0 -15261-3 0  9994,2 54779  53.2152 159.5635 0001385  74.1488 285.9657 15.08844859 76732,6917.866,95.437,540.689,538.772,0.0
54779.0,STARLINK-5447,PAYLOAD,2024-05-08 09:03:04,15.08843915,0.000132,53.2163,158.3736,74.5516,285.5622,-2.1115e-05,-6.24e-06,0.0,0 STARLINK-5447,1 54779U 22175X   24129.37714082 -.00000624  00000-0 -21115-4 0  9997,2 54779  53.2163 158.3736 0001320  74.5516 285.5622 15.08843915 78932,6917.868,95.437,540.647,538.82,0.0
54779.0,STARLINK-5447,PAYLOAD,2024-05-08 18:35:23,15.08846066,0.0001309,53.2161,156.5893,73.6196,286.494,-1.3424e-05,-5.02e-06,0.0,0 STARLINK-5447,1 54779U 22175X   24129.77457742 -.00000502  00000-0 -13424-4 0  9997,2 54779  53.2161 156.5893 0001309  73.6196 286.4940 15.08846066 78994,6917.862,95.437,540.632,538.821,0.0
54779.0,STARLINK-5447,PAYLOAD,2024-05-09 07:18:28,15.08846876,0.0001297,53.216,154.2131,83.91,276.204,1.0366e-05,-1.23e-06,0.0,0 STARLINK-5447,1 54779U 22175X   24130.30449442 -.00000123  00000-0  10366-4 0  9996,2 54779  53.2160 154.2131 0001297  83.9100 276.2040 15.08846876 76915,6917.859,95.437,540.622,538.827,0.0
54779.0,STARLINK-5447,PAYLOAD,2024-05-10 10:20:01,15.08843368,0.0001337,53.2166,149.1549,86.6778,273.4367,0.00014691,2.051e-05,0.0,0 STARLINK-5447,1 54779U 22175X   24131.43057466  .00002051  00000-0  14691-3 0  9997,2 54779  53.2166 149.1549 0001337  86.6778 273.4367 15.08843368 77086,6917.87,95.437,540.66,538.81,0.0
54779.0,STARLINK-5447,PAYLOAD,2024-05-10 18:16:57,15.08839311,0.0001391,53.2169,147.668,88.4357,271.6794,8.4844e-05,1.063e-05,0.0,0 STARLINK-5447,1 54779U 22175X   24131.76177931  .00001063  00000-0  84844-4 0  9993,2 54779  53.2169 147.6680 0001391  88.4357 271.6794 15.08839311 77134,6917.882,95.438,540.71,538.785,0.0
54779.0,STARLINK-5447,PAYLOAD,2024-05-11 08:35:25,15.08860852,0.0001635,53.2161,144.992,83.8182,276.2997,0.00045162,6.911e-05,0.0,0 STARLINK-5447,1 54779U 22175X   24132.35793325  .00006911  00000-0  45162-3 0  9996,2 54779  53.2161 144.9920 0001635  83.8182 276.2997 15.08860852 77229,6917.817,95.436,540.813,538.551,0.0
54779.0,STARLINK-5447,PAYLOAD,2024-05-12 06:50:50,15.0879595,0.0001362,53.2157,140.8291,78.9292,281.1853,-0.0010266,-0.00016569,0.0,0 STARLINK-5447,1 54779U 22175X   24133.28530367 -.00016569  00000-0 -10266-2 0  9992,2 54779  53.2157 140.8291 0001362  78.9292 281.1853 15.08795950 77361,6918.015,95.44,540.822,538.938,0.0
54779.0,STARLINK-5447,PAYLOAD,2024-05-12 17:58:33,15.08797984,0.0001215,53.2174,138.7478,74.0726,286.04,-0.00058548,-9.583e-05,0.0,0 STARLINK-5447,1 54779U 22175X   24133.74899579 -.00009583  00000-0 -58548-3 0  9990,2 54779  53.2174 138.7478 0001215  74.0726 286.0400 15.08797984 77438,6918.009,95.44,540.714,539.033,0.0
54779.0,STARLINK-5447,PAYLOAD,2024-05-13 05:06:15,15.08823991,0.0001725,53.2162,136.6656,75.6995,284.4189,0.00025112,3.709e-05,0.0,0 STARLINK-5447,1 54779U 22175X   24134.21268125  .00003709  00000-0  25112-3 0  9993,2 54779  53.2162 136.6656 0001725  75.6995 284.4189 15.08823991 77503,6917.929,95.439,540.988,538.601,0.0
54779.0,STARLINK-5447,PAYLOAD,2024-05-13 06:41:39,15.08821637,0.0001887,53.2153,136.3651,86.8964,273.2244,0.001565,0.00024694,0.0,0 STARLINK-5447,1 54779U 22175X   24134.27892718  .00024694  00000-0  15650-2 0  9991,2 54779  53.2153 136.3651 0001887  86.8964 273.2244 15.08821637 79677,6917.937,95.439,541.107,538.496,0.0
54779.0,STARLINK-5447,PAYLOAD,2024-05-14 04:57:01,15.0888023,0.0001697,53.2154,132.2045,77.1472,282.971,0.001227,0.00019315,0.0,0 STARLINK-5447,1 54779U 22175X   24135.20626668  .00019315  00000-0  12270-2 0  9993,2 54779  53.2154 132.2045 0001697  77.1472 282.9710 15.08880230 77651,6917.757,95.435,540.796,538.448,0.0
54779.0,STARLINK-5447,PAYLOAD,2024-05-14 09:43:10,15.08888812,0.0001596,53.2144,131.3119,67.6635,292.4527,0.00086927,0.00013592,0.0,0 STARLINK-5447,1 54779U 22175X   24135.40497896  .00013592  00000-0  86927-3 0  9996,2 54779  53.2144 131.3119 0001596  67.6635 292.4527 15.08888812 79844,6917.731,95.434,540.7,538.492,0.0
54779.0,STARLINK-5447,PAYLOAD,2024-05-15 04:47:46,15.08839746,0.0001635,53.2158,127.7426,61.6434,298.4722,-0.0012442,-0.00020035,0.0,0 STARLINK-5447,1 54779U 22175X   24136.19984441 -.00020035  00000-0 -12442-2 0  9992,2 54779  53.2158 127.7426 0001635  61.6434 298.4722 15.08839746 77803,6917.881,95.438,540.877,538.615,0.0
54779.0,STARLINK-5447,PAYLOAD,2024-05-15 06:23:09,15.0882148,0.0001647,53.2148,127.4467,73.7684,286.3489,-0.00024728,-4.219e-05,0.0,0 STARLINK-5447,1 54779U 22175X   24136.26608789 -.00004219  00000-0 -24728-3 0  9995,2 54779  53.2148 127.4467 0001647  73.7684 286.3489 15.08821480 79970,6917.937,95.439,540.941,538.663,0.0
